{
  "type": "FeatureCollection",
  "name": "Stonehill holes 1 and 2 reference geometry",
  "crs": {
    "type": "name",
    "properties": {
      "name": "urn:ogc:def:crs:OGC:1.3:CRS84"
    }
  },
  "features": [
    {
      "type": "Feature",
      "id": "way/1306285792",
      "properties": {
        "golf": "tee",
        "prototype_hole": 1,
        "prototype_feature": "tee",
        "source": "OpenStreetMap contributors"
      },
      "geometry": {
        "type": "Polygon",
        "coordinates": [
          [
            [
              -81.0265534,
              46.4273858
            ],
            [
              -81.0265899,
              46.4274021
            ],
            [
              -81.0266338,
              46.4274095
            ],
            [
              -81.0266703,
              46.4274066
            ],
            [
              -81.026695,
              46.4273888
            ],
            [
              -81.0267047,
              46.42736
            ],
            [
              -81.0266875,
              46.42734
            ],
            [
              -81.0266574,
              46.4273267
            ],
            [
              -81.0266177,
              46.42732
            ],
            [
              -81.026577,
              46.4273237
            ],
            [
              -81.026548,
              46.4273385
            ],
            [
              -81.0265416,
              46.4273622
            ],
            [
              -81.0265534,
              46.4273858
            ]
          ]
        ]
      }
    },
    {
      "type": "Feature",
      "id": "way/1306285793",
      "properties": {
        "golf": "fairway",
        "prototype_hole": 1,
        "prototype_feature": "fairway",
        "source": "OpenStreetMap contributors"
      },
      "geometry": {
        "type": "Polygon",
        "coordinates": [
          [
            [
              -81.0294834,
              46.4276092
            ],
            [
              -81.0292774,
              46.4275959
            ],
            [
              -81.02908,
              46.4275973
            ],
            [
              -81.0288783,
              46.4276121
            ],
            [
              -81.0287131,
              46.4276388
            ],
            [
              -81.0285457,
              46.4276787
            ],
            [
              -81.028329,
              46.4276994
            ],
            [
              -81.0280994,
              46.4277319
            ],
            [
              -81.0278848,
              46.4277379
            ],
            [
              -81.0277003,
              46.4277364
            ],
            [
              -81.0275909,
              46.4277142
            ],
            [
              -81.0275801,
              46.4276876
            ],
            [
              -81.0275801,
              46.4276373
            ],
            [
              -81.027578,
              46.4275914
            ],
            [
              -81.0276102,
              46.4275485
            ],
            [
              -81.0276595,
              46.4275027
            ],
            [
              -81.0277475,
              46.4274701
            ],
            [
              -81.0278762,
              46.4274332
            ],
            [
              -81.028035,
              46.4274154
            ],
            [
              -81.0282625,
              46.4273992
            ],
            [
              -81.0284341,
              46.4273829
            ],
            [
              -81.028638,
              46.4273637
            ],
            [
              -81.028829,
              46.4273489
            ],
            [
              -81.0289234,
              46.4273548
            ],
            [
              -81.0291015,
              46.4273489
            ],
            [
              -81.0293182,
              46.4273563
            ],
            [
              -81.0293933,
              46.4272853
            ],
            [
              -81.029565,
              46.4273178
            ],
            [
              -81.0297516,
              46.4273444
            ],
            [
              -81.0298461,
              46.4273503
            ],
            [
              -81.0299598,
              46.4273592
            ],
            [
              -81.0301057,
              46.4273518
            ],
            [
              -81.0302623,
              46.4273222
            ],
            [
              -81.030434,
              46.4272749
            ],
            [
              -81.0306035,
              46.4271418
            ],
            [
              -81.0307816,
              46.4270087
            ],
            [
              -81.0309168,
              46.4269155
            ],
            [
              -81.0310649,
              46.4268194
            ],
            [
              -81.0313996,
              46.426582
            ],
            [
              -81.0314135,
              46.4267979
            ],
            [
              -81.0312751,
              46.426914
            ],
            [
              -81.0312022,
              46.4270057
            ],
            [
              -81.0310992,
              46.4270989
            ],
            [
              -81.0309232,
              46.4271995
            ],
            [
              -81.0307795,
              46.4273799
            ],
            [
              -81.0306851,
              46.4274953
            ],
            [
              -81.030522,
              46.4275648
            ],
            [
              -81.0303589,
              46.4276136
            ],
            [
              -81.0301057,
              46.4276565
            ],
            [
              -81.0298546,
              46.4276639
            ],
            [
              -81.0296637,
              46.4276417
            ],
            [
              -81.0294834,
              46.4276092
            ]
          ]
        ]
      }
    },
    {
      "type": "Feature",
      "id": "way/1306285794",
      "properties": {
        "golf": "green",
        "prototype_hole": 1,
        "prototype_feature": "green",
        "source": "OpenStreetMap contributors"
      },
      "geometry": {
        "type": "Polygon",
        "coordinates": [
          [
            [
              -81.0314436,
              46.4267883
            ],
            [
              -81.0314736,
              46.4267698
            ],
            [
              -81.031508,
              46.4267432
            ],
            [
              -81.0315412,
              46.4267062
            ],
            [
              -81.0315562,
              46.4266744
            ],
            [
              -81.0315562,
              46.4266375
            ],
            [
              -81.0315455,
              46.4266094
            ],
            [
              -81.0315198,
              46.4265849
            ],
            [
              -81.0314779,
              46.4265672
            ],
            [
              -81.0314371,
              46.4265665
            ],
            [
              -81.0313996,
              46.426582
            ],
            [
              -81.0313792,
              46.4266116
            ],
            [
              -81.0313663,
              46.4266515
            ],
            [
              -81.0313545,
              46.4266848
            ],
            [
              -81.0313299,
              46.4267151
            ],
            [
              -81.0313256,
              46.4267499
            ],
            [
              -81.0313395,
              46.4267757
            ],
            [
              -81.0313771,
              46.426795
            ],
            [
              -81.0314135,
              46.4267979
            ],
            [
              -81.0314436,
              46.4267883
            ]
          ]
        ]
      }
    },
    {
      "type": "Feature",
      "id": "way/1306285795",
      "properties": {
        "golf": "hole",
        "par": "5",
        "ref": "1",
        "prototype_hole": 1,
        "prototype_feature": "hole",
        "source": "OpenStreetMap contributors"
      },
      "geometry": {
        "type": "LineString",
        "coordinates": [
          [
            -81.0266231,
            46.4273651
          ],
          [
            -81.0300134,
            46.4275389
          ],
          [
            -81.0314683,
            46.4266693
          ]
        ]
      }
    },
    {
      "type": "Feature",
      "id": "way/1306285796",
      "properties": {
        "golf": "water_hazard",
        "natural": "water",
        "prototype_hole": 1,
        "prototype_feature": "water",
        "source": "OpenStreetMap contributors"
      },
      "geometry": {
        "type": "Polygon",
        "coordinates": [
          [
            [
              -81.0288912,
              46.4271914
            ],
            [
              -81.028874,
              46.4271248
            ],
            [
              -81.0288805,
              46.4270627
            ],
            [
              -81.0289126,
              46.4270124
            ],
            [
              -81.0289899,
              46.4269872
            ],
            [
              -81.0290564,
              46.4270494
            ],
            [
              -81.0291015,
              46.4270982
            ],
            [
              -81.0292195,
              46.4271159
            ],
            [
              -81.0293461,
              46.4271189
            ],
            [
              -81.0293761,
              46.4272091
            ],
            [
              -81.0293289,
              46.4273126
            ],
            [
              -81.029271,
              46.4273363
            ],
            [
              -81.029153,
              46.427323
            ],
            [
              -81.028962,
              46.4272919
            ],
            [
              -81.0287496,
              46.4272697
            ],
            [
              -81.0285908,
              46.427286
            ],
            [
              -81.0284213,
              46.4273407
            ],
            [
              -81.0281316,
              46.4273674
            ],
            [
              -81.0278205,
              46.4273866
            ],
            [
              -81.0275651,
              46.4273925
            ],
            [
              -81.0275823,
              46.4273156
            ],
            [
              -81.0275394,
              46.4272609
            ],
            [
              -81.0274857,
              46.4271958
            ],
            [
              -81.0274557,
              46.4271381
            ],
            [
              -81.0274836,
              46.4270937
            ],
            [
              -81.0275866,
              46.427107
            ],
            [
              -81.0277325,
              46.4271381
            ],
            [
              -81.0279642,
              46.4270937
            ],
            [
              -81.0281809,
              46.4269784
            ],
            [
              -81.0282839,
              46.4269177
            ],
            [
              -81.0283419,
              46.4269222
            ],
            [
              -81.0283826,
              46.4269828
            ],
            [
              -81.0284384,
              46.4270804
            ],
            [
              -81.0285028,
              46.4271633
            ],
            [
              -81.0285736,
              46.4272076
            ],
            [
              -81.0287002,
              46.4272061
            ],
            [
              -81.0287882,
              46.4272017
            ],
            [
              -81.0288912,
              46.4271914
            ]
          ]
        ]
      }
    },
    {
      "type": "Feature",
      "id": "way/1306285797",
      "properties": {
        "golf": "tee",
        "prototype_hole": 2,
        "prototype_feature": "tee",
        "source": "OpenStreetMap contributors"
      },
      "geometry": {
        "type": "Polygon",
        "coordinates": [
          [
            [
              -81.0300199,
              46.4268356
            ],
            [
              -81.0300134,
              46.4268172
            ],
            [
              -81.0299963,
              46.4267979
            ],
            [
              -81.0299619,
              46.4267854
            ],
            [
              -81.029919,
              46.4268009
            ],
            [
              -81.0298782,
              46.4268327
            ],
            [
              -81.0298589,
              46.4268756
            ],
            [
              -81.0298611,
              46.4269015
            ],
            [
              -81.0298825,
              46.4269251
            ],
            [
              -81.0299233,
              46.4269303
            ],
            [
              -81.0299705,
              46.4269037
            ],
            [
              -81.0299952,
              46.4268837
            ],
            [
              -81.0300145,
              46.4268623
            ],
            [
              -81.0300199,
              46.4268356
            ]
          ]
        ]
      }
    },
    {
      "type": "Feature",
      "id": "way/1306285798",
      "properties": {
        "golf": "fairway",
        "prototype_hole": 2,
        "prototype_feature": "fairway",
        "source": "OpenStreetMap contributors"
      },
      "geometry": {
        "type": "Polygon",
        "coordinates": [
          [
            [
              -81.0288858,
              46.4267018
            ],
            [
              -81.0288451,
              46.4267743
            ],
            [
              -81.0287506,
              46.4268379
            ],
            [
              -81.0286391,
              46.4268645
            ],
            [
              -81.0285511,
              46.4268793
            ],
            [
              -81.0284674,
              46.4268704
            ],
            [
              -81.0283966,
              46.4268482
            ],
            [
              -81.0282807,
              46.4268334
            ],
            [
              -81.0281005,
              46.4268734
            ],
            [
              -81.0279074,
              46.4268911
            ],
            [
              -81.0277915,
              46.4268748
            ],
            [
              -81.027667,
              46.4268423
            ],
            [
              -81.0275941,
              46.4268024
            ],
            [
              -81.0275168,
              46.4267373
            ],
            [
              -81.027431,
              46.4266426
            ],
            [
              -81.0272894,
              46.4265938
            ],
            [
              -81.0271542,
              46.4265672
            ],
            [
              -81.0270104,
              46.4265805
            ],
            [
              -81.0269203,
              46.4265657
            ],
            [
              -81.0268602,
              46.4265287
            ],
            [
              -81.0267594,
              46.4264548
            ],
            [
              -81.0266692,
              46.4264163
            ],
            [
              -81.0265276,
              46.4264045
            ],
            [
              -81.0263781,
              46.4263662
            ],
            [
              -81.0265494,
              46.4262217
            ],
            [
              -81.0266368,
              46.4262747
            ],
            [
              -81.0267293,
              46.4262477
            ],
            [
              -81.0268452,
              46.4262788
            ],
            [
              -81.0269718,
              46.4262951
            ],
            [
              -81.027137,
              46.4263424
            ],
            [
              -81.0273774,
              46.4263912
            ],
            [
              -81.0276649,
              46.426443
            ],
            [
              -81.0279353,
              46.4264725
            ],
            [
              -81.028197,
              46.4265243
            ],
            [
              -81.0284138,
              46.4265835
            ],
            [
              -81.0285683,
              46.4265746
            ],
            [
              -81.0286906,
              46.4265731
            ],
            [
              -81.0287828,
              46.4265761
            ],
            [
              -81.0288515,
              46.4266219
            ],
            [
              -81.0288858,
              46.4267018
            ]
          ]
        ]
      }
    },
    {
      "type": "Feature",
      "id": "way/1306285799",
      "properties": {
        "golf": "green",
        "prototype_hole": 2,
        "prototype_feature": "green",
        "source": "OpenStreetMap contributors"
      },
      "geometry": {
        "type": "Polygon",
        "coordinates": [
          [
            [
              -81.0264814,
              46.4263223
            ],
            [
              -81.0264531,
              46.4263466
            ],
            [
              -81.0264205,
              46.4263593
            ],
            [
              -81.0263781,
              46.4263662
            ],
            [
              -81.0263526,
              46.4263623
            ],
            [
              -81.02632,
              46.426349
            ],
            [
              -81.0263052,
              46.4263268
            ],
            [
              -81.0263087,
              46.4262988
            ],
            [
              -81.0263324,
              46.426255
            ],
            [
              -81.0263624,
              46.4262203
            ],
            [
              -81.0264007,
              46.426194
            ],
            [
              -81.0264446,
              46.4261847
            ],
            [
              -81.0264941,
              46.4261837
            ],
            [
              -81.0265324,
              46.4261971
            ],
            [
              -81.0265494,
              46.4262217
            ],
            [
              -81.0265409,
              46.4262637
            ],
            [
              -81.026514,
              46.426294
            ],
            [
              -81.0264814,
              46.4263223
            ]
          ]
        ]
      }
    },
    {
      "type": "Feature",
      "id": "way/1306285800",
      "properties": {
        "golf": "bunker",
        "prototype_hole": 2,
        "prototype_feature": "bunker",
        "source": "OpenStreetMap contributors"
      },
      "geometry": {
        "type": "Polygon",
        "coordinates": [
          [
            [
              -81.0266657,
              46.4262475
            ],
            [
              -81.0266756,
              46.4262382
            ],
            [
              -81.0266763,
              46.4262275
            ],
            [
              -81.0266685,
              46.4262206
            ],
            [
              -81.0266557,
              46.4262148
            ],
            [
              -81.0266359,
              46.4262157
            ],
            [
              -81.0266274,
              46.426225
            ],
            [
              -81.0266218,
              46.4262343
            ],
            [
              -81.0266246,
              46.4262426
            ],
            [
              -81.0266373,
              46.4262479
            ],
            [
              -81.0266515,
              46.4262494
            ],
            [
              -81.0266657,
              46.4262475
            ]
          ]
        ]
      }
    },
    {
      "type": "Feature",
      "id": "way/1306285801",
      "properties": {
        "golf": "hole",
        "par": "4",
        "ref": "2",
        "prototype_hole": 2,
        "prototype_feature": "hole",
        "source": "OpenStreetMap contributors"
      },
      "geometry": {
        "type": "LineString",
        "coordinates": [
          [
            -81.0299406,
            46.426859
          ],
          [
            -81.0276445,
            46.4266393
          ],
          [
            -81.0264199,
            46.4262705
          ]
        ]
      }
    }
  ]
}
